{"fetched_at":"2026-03-30T09:12:31Z","count":15922,"tles":[{"name":"STARLINK-11335 [DTC]","line1":"1 61687U 24195A   26087.82108740  .00000198  00000+0  64879-5 0  9998","line2":"2 61687  53.1590 292.3000 0000794  27.9636 332.1424 15.69710246 82035","category":"Starlink"}]}