{
  "norad_id": 61687,
  "name": "STARLINK-11335 [DTC]",
  "history": [
    {
      "epoch": "2026-03-28T19:42:21.951360",
      "apogee_km": 360.2615044383392,
      "perigee_km": 359.1905884857342,
      "latitude_deg": 44.15878410394004,
      "longitude_deg": 67.52439039992169,
      "semi_major_axis_km": 6737.863046462036,
      "eccentricity": 7.947e-05,
      "inclination_deg": 53.159,
      "raan_deg": 292.3,
      "arg_perigee_deg": 27.9636,
      "mean_anomaly_deg": 332.1424,
      "mean_motion_rev_day": 15.69710246
    }
  ]
}